IRIDIUM 116             
1 43072U 17083C   23272.38573943  .00000531  00000+0  18240-3 0  9999
2 43072  86.4024  16.5120 0002191  99.6424 260.5019 14.34217690302010
IRIDIUM 130             
1 43073U 17083D   23272.77262998  .00000545  00000+0  18768-3 0  9998
2 43073  86.4035  16.5297 0002208  91.7050 268.4399 14.34217997302013
IRIDIUM 151             
1 43074U 17083E   23272.74725924  .00000640  00000+0  22161-3 0  9997
2 43074  86.4027  16.3963 0002283  97.2218 262.9237 14.34216603302038
IRIDIUM 134             
1 43075U 17083F   23272.36670399  .00000119  00000+0  35336-4 0  9991
2 43075  86.4029  16.5498 0001956  88.9861 271.1559 14.34216631301942
IRIDIUM 137             
1 43076U 17083G   23273.00730076  .00000527  00000+0  18096-3 0  9999
2 43076  86.4029  16.3555 0002199 101.0696 259.0747 14.34221411302103
IRIDIUM 141             
1 43077U 17083H   23272.37304587  .00000218  00000+0  70831-4 0  9996
2 43077  86.4026  16.5066 0002350  92.3669 267.7795 14.34211910302013
IRIDIUM 153             
1 43078U 17083J   23272.74383368  .00000576  00000+0  19866-3 0  9999
2 43078  86.4016 344.8290 0002374  84.3739 275.7727 14.34219944303171
IRIDIUM 131             
1 43079U 17083K   23272.77897114  .00000038  00000+0  63845-5 0  9993
2 43079  86.4030  16.4572 0002165  91.8875 268.2569 14.34218559302008
